{
  "norad_id": 54801,
  "name": "STARLINK-5429",
  "history": [
    {
      "epoch": "2026-03-28T21:19:55.482240Z",
      "apogee_km": 540.7967693103028,
      "perigee_km": 538.6811444851655,
      "latitude_deg": -1.0301375701984705e-05,
      "longitude_deg": 171.2088030894964,
      "height_km": 540.5799491779948,
      "semi_major_axis_km": 6917.875956897734,
      "eccentricity": 0.00015291,
      "inclination_deg": 53.2191,
      "raan_deg": 317.4928,
      "arg_perigee_deg": 87.0378,
      "mean_anomaly_deg": 273.0789,
      "mean_motion_rev_day": 15.0884145
    },
    {
      "epoch": "2026-03-29T00:30:41.663520Z",
      "apogee_km": 540.8123252748319,
      "perigee_km": 538.6580998678373,
      "latitude_deg": 5.8909753990992615e-05,
      "longitude_deg": 122.79085530201539,
      "height_km": 540.5694441830389,
      "semi_major_axis_km": 6917.872212571334,
      "eccentricity": 0.0001557,
      "inclination_deg": 53.2192,
      "raan_deg": 316.8978,
      "arg_perigee_deg": 86.7328,
      "mean_anomaly_deg": 273.3843,
      "mean_motion_rev_day": 15.08842675
    },
    {
      "epoch": "2026-03-30T05:07:38.793216Z",
      "apogee_km": 540.7206991677613,
      "perigee_km": 538.7325051684984,
      "latitude_deg": 3.038275560732107e-05,
      "longitude_deg": 47.02428244345557,
      "height_km": 540.5775570418963,
      "semi_major_axis_km": 6917.86360216813,
      "eccentricity": 0.0001437,
      "inclination_deg": 53.2173,
      "raan_deg": 311.5445,
      "arg_perigee_deg": 87.4266,
      "mean_anomaly_deg": 272.6891,
      "mean_motion_rev_day": 15.08845492
    }
  ]
}